GIOVE-A                 
1 28922U 05051A   08166.31297642  .00000088  00000-0  10000-3 0  3623
2 28922  56.0543 167.0580 0009412 322.8499  37.1057  1.70188801 15304
GIOVE-B                 
1 32781U 08020A   08167.17655432  .00000079  00000-0  10000-3 0   313
2 32781  55.9786 202.0767 0024589 223.1727 136.7202  1.70896347   858
